IRIDIUM 116             
1 43072U 17083C   25257.21074031  .00000085  00000+0  23172-4 0  9995
2 43072  86.3905  77.3717 0002318  84.3771 275.7689 14.34216489404616
IRIDIUM 130             
1 43073U 17083D   25257.24878680  .00000027  00000+0  26502-5 0  9998
2 43073  86.3913  77.6045 0002511  88.1122 272.0361 14.34217606404563
IRIDIUM 151             
1 43074U 17083E   25257.22341499  .00000059  00000+0  13945-4 0  9991
2 43074  86.3906  77.4179 0002262  84.3262 275.8191 14.34218035404589
IRIDIUM 134             
1 43075U 17083F   25256.98239793  .00000026  00000+0  23953-5 0  9992
2 43075  86.3908  77.5232 0002445  89.1453 271.0023 14.34217640404517
IRIDIUM 137             
1 43076U 17083G   25257.20438830 -.00000001  00000+0 -74658-5 0  9995
2 43076  86.3909  77.5176 0002134  71.8486 288.2942 14.34217500404611
IRIDIUM 141             
1 43077U 17083H   25257.19804516  .00000031  00000+0  40924-5 0  9992
2 43077  86.3904  77.3662 0002026  91.5427 268.6001 14.34217646404618
IRIDIUM 153             
1 43078U 17083J   25257.15022419  .00000155  00000+0  48186-4 0  9997
2 43078  86.3954  45.8438 0001984 103.4611 256.6806 14.34218242405710
IRIDIUM 131             
1 43079U 17083K   25257.25512827  .00000078  00000+0  20956-4 0  9995
2 43079  86.3910  77.5102 0001978  88.7661 271.3761 14.34217528404557
